NORAD_CAT_ID,OBJECT_NAME,OBJECT_TYPE,EPOCH,MEAN_MOTION,ECCENTRICITY,INCLINATION,RA_OF_ASC_NODE,ARG_OF_PERICENTER,MEAN_ANOMALY,BSTAR,MEAN_MOTION_DOT,MEAN_MOTION_DDOT,TLE_LINE0,TLE_LINE1,TLE_LINE2,SEMIMAJOR_AXIS,PERIOD,APOGEE,PERIGEE,DECAYED
55628.0,STARLINK-5484,PAYLOAD,2023-05-10 18:17:36,14.99139017,0.0002915,69.9988,291.4442,268.1514,91.9311,3.9284e-05,3.85e-06,0.0,0 STARLINK-5484,1 55628U 23021A   23130.76222488  .00000385  00000-0  39284-4 0  9998,2 55628  69.9988 291.4442 0002915 268.1514  91.9311 14.99139017 13122,6947.692,96.055,571.582,567.532,0.0
55628.0,STARLINK-5484,PAYLOAD,2023-05-11 03:54:05,14.99138922,0.0002921,69.9989,290.4333,269.0525,91.0299,4.4458e-05,4.48e-06,0.0,0 STARLINK-5484,1 55628U 23021A   23131.16256868  .00000448  00000-0  44458-4 0  9991,2 55628  69.9989 290.4333 0002921 269.0525  91.0299 14.99138922 13489,6947.692,96.055,571.587,567.528,0.0
55628.0,STARLINK-5484,PAYLOAD,2023-05-11 16:42:45,14.99137341,0.0002986,69.9987,289.0858,270.6719,89.4099,9.1059e-06,1.7e-07,0.0,0 STARLINK-5484,1 55628U 23021A   23131.69636300  .00000017  00000-0  91059-5 0  9994,2 55628  69.9987 289.0858 0002986 270.6719  89.4099 14.99137341 13569,6947.697,96.055,571.637,567.488,0.0
55628.0,STARLINK-5484,PAYLOAD,2023-05-12 02:19:44,14.98803987,0.0003541,69.9987,288.0761,272.7896,87.2858,-0.0034556,-0.0004159,0.0,0 STARLINK-5484,1 55628U 23021A   23132.09704140 -.00041590  00000-0 -34556-2 0  9996,2 55628  69.9987 288.0761 0003541 272.7896  87.2858 14.98803987 13326,6948.728,96.077,573.053,568.132,0.0
55628.0,STARLINK-5484,PAYLOAD,2023-05-12 10:20:25,14.98680184,0.0003113,69.9987,287.2345,270.2906,89.7896,-0.0044758,-0.00053575,0.0,0 STARLINK-5484,1 55628U 23021A   23132.43084493 -.00053575  00000-0 -44758-2 0  9997,2 55628  69.9987 287.2345 0003113 270.2906  89.7896 14.98680184 13674,6949.11,96.085,573.138,568.812,0.0
55628.0,STARLINK-5484,PAYLOAD,2023-05-12 19:57:06,14.98650172,0.0003286,69.9983,286.2236,270.3408,89.7375,-0.0043665,-0.00052239,0.0,0 STARLINK-5484,1 55628U 23021A   23132.83132059 -.00052239  00000-0 -43665-2 0  9995,2 55628  69.9983 286.2236 0003286 270.3408  89.7375 14.98650172 13437,6949.203,96.086,573.351,568.784,0.0
55628.0,STARLINK-5484,PAYLOAD,2023-05-13 13:34:24,14.98591087,0.0003267,69.9985,284.3716,269.953,90.1255,-0.0039362,-0.00047063,0.0,0 STARLINK-5484,1 55628U 23021A   23133.56556056 -.00047063  00000-0 -39362-2 0  9991,2 55628  69.9985 284.3716 0003267 269.9530  90.1255 14.98591087 13544,6949.386,96.09,573.521,568.98,0.0
55628.0,STARLINK-5484,PAYLOAD,2023-05-13 19:58:53,14.98578618,0.0003212,69.9986,283.6979,269.6402,90.4389,-0.0037805,-0.00045202,0.0,0 STARLINK-5484,1 55628U 23021A   23133.83256340 -.00045202  00000-0 -37805-2 0  9997,2 55628  69.9986 283.6979 0003212 269.6402  90.4389 14.98578618 13886,6949.424,96.091,573.521,569.057,0.0
55628.0,STARLINK-5484,PAYLOAD,2023-05-14 03:59:32,14.98511818,0.000315,69.9991,282.8564,270.489,89.5908,-0.0030914,-0.00036959,0.0,0 STARLINK-5484,1 55628U 23021A   23134.16634808 -.00036959  00000-0 -30914-2 0  9996,2 55628  69.9991 282.8564 0003150 270.4890  89.5908 14.98511818 13633,6949.631,96.095,573.685,569.307,0.0
55628.0,STARLINK-5484,PAYLOAD,2023-05-14 13:36:24,14.98323679,0.0003053,69.9982,281.8453,271.3153,88.7657,1.1797e-05,4.8e-07,0.0,0 STARLINK-5484,1 55628U 23021A   23134.56694599  .00000048  00000-0  11797-4 0  9991,2 55628  69.9982 281.8453 0003053 271.3153  88.7657 14.98323679 13697,6950.212,96.107,574.199,569.956,0.0
55628.0,STARLINK-5484,PAYLOAD,2023-05-14 22:00:00,14.98324812,0.0003286,69.9995,280.9642,273.9718,172.0437,0.00039805,4.659e-05,0.0,0 STARLINK-5484,1 55628U 23021A   23134.91667824  .00004659  00000-0  39805-3 0  9992,2 55628  69.9995 280.9642 0003286 273.9718 172.0437 14.98324812  1302,6950.209,96.107,574.358,569.79,0.0
55628.0,STARLINK-5484,PAYLOAD,2023-05-15 14:00:01,14.98359019,0.0003269,69.9999,279.2833,270.4956,170.4753,-0.0038465,-0.00045726,0.0,0 STARLINK-5484,1 55628U 23021A   23135.58334491 -.00045726  00000-0 -38465-2 0  9999,2 55628  69.9999 279.2833 0003269 270.4956 170.4753 14.98359019  1306,6950.103,96.105,574.24,569.696,0.0
55628.0,STARLINK-5484,PAYLOAD,2023-05-15 16:00:00,14.98344305,0.0003239,69.9997,279.0732,272.1496,258.202,-0.002445,-0.00029157,0.0,0 STARLINK-5484,1 55628U 23021A   23135.66667824 -.00029157  00000-0 -24450-2 0  9996,2 55628  69.9997 279.0732 0003239 272.1496 258.2020 14.98344305 13852,6950.149,96.106,574.265,569.763,0.0
55628.0,STARLINK-5484,PAYLOAD,2023-05-15 16:50:40,14.98332406,0.0003113,69.9986,278.9839,273.0522,87.0281,-4.1724e-05,-5.91e-06,0.0,0 STARLINK-5484,1 55628U 23021A   23135.70186259 -.00000591  00000-0 -41724-4 0  9995,2 55628  69.9986 278.9839 0003113 273.0522  87.0281 14.98332406 14168,6950.185,96.107,574.214,569.887,0.0
55628.0,STARLINK-5484,PAYLOAD,2023-05-15 21:39:04,14.98336057,0.0003111,69.9987,278.4788,273.3141,86.7662,8.4746e-07,-8.3e-07,0.0,0 STARLINK-5484,1 55628U 23021A   23135.90213849 -.00000083  00000-0  84746-6 0  9991,2 55628  69.9987 278.4788 0003111 273.3141  86.7662 14.98336057 13899,6950.174,96.107,574.201,569.877,0.0
55628.0,STARLINK-5484,PAYLOAD,2023-05-16 13:40:27,14.98280796,0.0003063,69.9992,276.7969,264.8239,95.2571,0.00073666,8.696e-05,0.0,0 STARLINK-5484,1 55628U 23021A   23136.56975698  .00008696  00000-0  73666-3 0  9994,2 55628  69.9992 276.7969 0003063 264.8239  95.2571 14.98280796 13999,6950.345,96.11,574.339,570.081,0.0
55628.0,STARLINK-5484,PAYLOAD,2023-05-17 10:30:10,14.98330075,0.0003075,69.9992,274.6086,268.4124,91.6683,2.5078e-05,2.06e-06,0.0,0 STARLINK-5484,1 55628U 23021A   23137.43762277  .00000206  00000-0  25078-4 0  9992,2 55628  69.9992 274.6086 0003075 268.4124  91.6683 14.98330075 14128,6950.193,96.107,574.195,569.92,0.0
55628.0,STARLINK-5484,PAYLOAD,2023-05-17 18:30:50,14.98330882,0.0002885,69.9997,273.7675,263.423,96.6601,3.5692e-05,3.33e-06,0.0,0 STARLINK-5484,1 55628U 23021A   23137.77142171  .00000333  00000-0  35692-4 0  9998,2 55628  69.9997 273.7675 0002885 263.4230  96.6601 14.98330882 14477,6950.19,96.107,574.06,570.05,0.0
55628.0,STARLINK-5484,PAYLOAD,2023-05-18 12:08:19,14.9832724,0.0003135,69.9989,271.9145,268.834,91.246,5.5896e-06,-2.6e-07,0.0,0 STARLINK-5484,1 55628U 23021A   23138.50578492 -.00000026  00000-0  55896-5 0  9998,2 55628  69.9989 271.9145 0003135 268.8340  91.2460 14.98327240 14287,6950.201,96.107,574.245,569.888,0.0
55628.0,STARLINK-5484,PAYLOAD,2023-05-19 08:58:04,14.98334396,0.0003135,69.9988,269.7259,268.5005,91.5794,1.7584e-05,1.17e-06,0.0,0 STARLINK-5484,1 55628U 23021A   23139.37365959  .00000117  00000-0  17584-4 0  9997,2 55628  69.9988 269.7259 0003135 268.5005  91.5794 14.98334396 14410,6950.179,96.107,574.223,569.865,0.0
55628.0,STARLINK-5484,PAYLOAD,2023-05-19 12:10:20,14.98334397,0.0003138,69.9988,269.3892,268.4656,91.6143,1.7711e-05,1.18e-06,0.0,0 STARLINK-5484,1 55628U 23021A   23139.50717920  .00000118  00000-0  17711-4 0  9994,2 55628  69.9988 269.3892 0003138 268.4656  91.6143 14.98334397 14738,6950.179,96.107,574.225,569.863,0.0
55628.0,STARLINK-5484,PAYLOAD,2023-05-20 10:36:13,14.98332483,0.0003164,69.9985,267.0324,268.0738,92.0059,4.9938e-05,5.03e-06,0.0,0 STARLINK-5484,1 55628U 23021A   23140.44181758  .00000503  00000-0  49938-4 0  9997,2 55628  69.9985 267.0324 0003164 268.0738  92.0059 14.98332483 14573,6950.185,96.107,574.249,569.851,0.0
55628.0,STARLINK-5484,PAYLOAD,2023-05-20 17:00:44,14.98338692,0.0003175,69.9988,266.3592,268.4993,91.5803,9.1702e-05,1.002e-05,0.0,0 STARLINK-5484,1 55628U 23021A   23140.70885161  .00001002  00000-0  91702-4 0  9996,2 55628  69.9988 266.3592 0003175 268.4993  91.5803 14.98338692 14618,6950.166,96.106,574.238,569.824,0.0
55628.0,STARLINK-5484,PAYLOAD,2023-05-20 18:36:52,14.98340301,0.0003184,69.9989,266.191,268.8279,91.2515,0.00010829,1.2e-05,0.0,0 STARLINK-5484,1 55628U 23021A   23140.77560977  .00001200  00000-0  10829-3 0  9998,2 55628  69.9989 266.1910 0003184 268.8279  91.2515 14.98340301 14923,6950.161,96.106,574.239,569.813,0.0
55628.0,STARLINK-5484,PAYLOAD,2023-05-21 07:25:58,14.98318748,0.0002535,70.0012,264.8465,259.6765,100.4109,0.00022069,2.54e-05,0.0,0 STARLINK-5484,1 55628U 23021A   23141.30969918  .00002540  00000-0  22069-3 0  9993,2 55628  70.0012 264.8465 0002535 259.6765 100.4109 14.98318748 14708,6950.228,96.108,573.855,570.331,0.0
55628.0,STARLINK-5484,PAYLOAD,2023-05-21 10:38:14,14.98320047,0.0002671,70.0007,264.5088,262.0582,98.0274,9.9151e-05,1.09e-05,0.0,0 STARLINK-5484,1 55628U 23021A   23141.44322215  .00001090  00000-0  99151-4 0  9997,2 55628  70.0007 264.5088 0002671 262.0582  98.0274 14.98320047 15022,6950.224,96.108,573.945,570.232,0.0
55628.0,STARLINK-5484,PAYLOAD,2023-05-21 18:38:54,14.98323839,0.0002649,70.0005,263.6675,261.5561,98.5298,-7.7542e-05,-1.018e-05,0.0,0 STARLINK-5484,1 55628U 23021A   23141.77702507 -.00001018  00000-0 -77542-4 0  9991,2 55628  70.0005 263.6675 0002649 261.5561  98.5298 14.98323839 15076,6950.212,96.107,573.918,570.236,0.0
55628.0,STARLINK-5484,PAYLOAD,2023-05-22 13:52:31,14.98333701,0.0003019,69.9995,261.6469,271.4524,88.6289,-3.6489e-05,-5.28e-06,0.0,0 STARLINK-5484,1 55628U 23021A   23142.57813827 -.00000528  00000-0 -36489-4 0  9998,2 55628  69.9995 261.6469 0003019 271.4524  88.6289 14.98333701 15193,6950.181,96.107,574.145,569.948,0.0
55628.0,STARLINK-5484,PAYLOAD,2023-05-22 18:40:55,14.98334717,0.0002997,69.9996,261.1418,271.4111,88.6705,-1.868e-05,-3.16e-06,0.0,0 STARLINK-5484,1 55628U 23021A   23142.77841681 -.00000316  00000-0 -18680-4 0  9997,2 55628  69.9996 261.1418 0002997 271.4111  88.6705 14.98334717 14920,6950.178,96.107,574.126,569.96,0.0
55628.0,STARLINK-5484,PAYLOAD,2023-05-23 12:18:24,14.98323996,0.0003005,69.9995,259.2901,270.987,89.0945,4.0085e-05,3.85e-06,0.0,0 STARLINK-5484,1 55628U 23021A   23143.51278262  .00000385  00000-0  40085-4 0  9997,2 55628  69.9995 259.2901 0003005 270.9870  89.0945 14.98323996 15032,6950.211,96.107,574.165,569.988,0.0
